ORBCOMM FM115           
1 41186U 15081H   24295.48947925  .00002701  00000+0  57430-3 0  9996
2 41186  46.9974  94.0372 0000498 280.4512  79.6318 14.61460986472843
ORBCOMM FM108           
1 41187U 15081J   24295.04482867  .00003316  00000+0  76300-3 0  9998
2 41187  47.0026 155.6803 0002566 270.4644  89.5948 14.57264638471906
ORBCOMM FM117           
1 41188U 15081K   24295.01104231  .00003218  00000+0  74149-3 0  9992
2 41188  46.9986 154.6817 0003019 287.4439  72.6116 14.57265121471940
ORBCOMM FM116           
1 41189U 15081L   24295.27490508  .00002338  00000+0  54901-3 0  9992
2 41189  47.0008 243.2729 0002204  13.7105 346.3839 14.57263790470795
